NORAD_CAT_ID,OBJECT_NAME,OBJECT_TYPE,EPOCH,MEAN_MOTION,ECCENTRICITY,INCLINATION,RA_OF_ASC_NODE,ARG_OF_PERICENTER,MEAN_ANOMALY,BSTAR,MEAN_MOTION_DOT,MEAN_MOTION_DDOT,TLE_LINE0,TLE_LINE1,TLE_LINE2,SEMIMAJOR_AXIS,PERIOD,APOGEE,PERIGEE,DECAYED
55779.0,STARLINK-5817,PAYLOAD,2023-06-14 22:40:42,15.69918398,0.0003346,69.997,224.895,274.3811,85.7002,1.4386e-05,1.517e-05,0.0,0 STARLINK-5817,1 55779U 23028AQ  23165.94493531  .00001517  00000-0  14386-4 0  9993,2 55779  69.9970 224.8950 0003346 274.3811  85.7002 15.69918398 16870,6737.267,91.725,361.387,356.878,0.0
55779.0,STARLINK-5817,PAYLOAD,2023-06-15 13:58:12,15.69934136,0.0003645,69.9952,223.1003,278.5903,81.488,7.0954e-06,6.41e-06,0.0,0 STARLINK-5817,1 55779U 23028AQ  23166.58209192  .00000641  00000-0  70954-5 0  9993,2 55779  69.9952 223.1003 0003645 278.5903  81.4880 15.69934136 16977,6737.222,91.724,361.543,356.632,0.0
55779.0,STARLINK-5817,PAYLOAD,2023-06-16 09:50:59,15.69925214,0.0002924,69.999,220.775,265.225,94.8612,1.4472e-05,1.528e-05,0.0,0 STARLINK-5817,1 55779U 23028AQ  23167.41041427  .00001528  00000-0  14472-4 0  9998,2 55779  69.9990 220.7750 0002924 265.2250  94.8612 15.69925214 17102,6737.248,91.724,361.083,357.143,0.0
55779.0,STARLINK-5817,PAYLOAD,2023-06-16 11:22:44,15.69932331,0.0003302,69.9986,220.5953,272.3037,87.778,3.0902e-05,3.506e-05,0.0,0 STARLINK-5817,1 55779U 23028AQ  23167.47412908  .00003506  00000-0  30902-4 0  9994,2 55779  69.9986 220.5953 0003302 272.3037  87.7780 15.69932331 17119,6737.228,91.724,361.317,356.868,0.0
55779.0,STARLINK-5817,PAYLOAD,2023-06-16 12:54:29,15.69933268,0.0003316,69.9981,220.4157,273.5182,86.5634,2.7639e-05,3.113e-05,0.0,0 STARLINK-5817,1 55779U 23028AQ  23167.53784413  .00003113  00000-0  27639-4 0  9991,2 55779  69.9981 220.4157 0003316 273.5182  86.5634 15.69933268 17124,6737.225,91.724,361.324,356.856,0.0
55779.0,STARLINK-5817,PAYLOAD,2023-06-16 23:36:46,15.69917572,0.0003149,70.0016,219.1654,266.9188,93.1647,-2.149e-06,-4.71e-06,0.0,0 STARLINK-5817,1 55779U 23028AQ  23167.98386980 -.00000471  00000-0 -21490-5 0  9993,2 55779  70.0016 219.1654 0003149 266.9188  93.1647 15.69917572 17194,6737.27,91.725,361.256,357.013,0.0
55779.0,STARLINK-5817,PAYLOAD,2023-06-17 05:43:47,15.6991019,0.0002567,70.0019,218.4498,265.779,94.3113,-1.5464e-05,-2.07e-05,0.0,0 STARLINK-5817,1 55779U 23028AQ  23168.23874363 -.00002070  00000-0 -15464-4 0  9999,2 55779  70.0019 218.4498 0002567 265.7790  94.3113 15.69910190 17239,6737.291,91.725,360.885,357.426,0.0
55779.0,STARLINK-5817,PAYLOAD,2023-06-17 07:15:33,15.69894915,0.0003511,69.9983,218.2659,277.0945,82.9851,-4.1202e-05,-5.158e-05,0.0,0 STARLINK-5817,1 55779U 23028AQ  23168.30246771 -.00005158  00000-0 -41202-4 0  9992,2 55779  69.9983 218.2659 0003511 277.0945  82.9851 15.69894915 17240,6737.335,91.726,361.565,356.834,0.0
55779.0,STARLINK-5817,PAYLOAD,2023-06-17 21:01:18,15.69928269,0.0003934,69.9974,216.653,264.6008,95.4739,3.2873e-05,3.742e-05,0.0,0 STARLINK-5817,1 55779U 23028AQ  23168.87590305  .00003742  00000-0  32873-4 0  9998,2 55779  69.9974 216.6530 0003934 264.6008  95.4739 15.69928269 17335,6737.239,91.724,361.755,356.454,0.0
55779.0,STARLINK-5817,PAYLOAD,2023-06-17 22:33:03,15.69931831,0.0003561,69.9973,216.4776,269.7315,90.3472,5.2887e-05,6.153e-05,0.0,0 STARLINK-5817,1 55779U 23028AQ  23168.93962070  .00006153  00000-0  52887-4 0  9993,2 55779  69.9973 216.4776 0003561 269.7315  90.3472 15.69931831 17345,6737.229,91.724,361.493,356.695,0.0
55779.0,STARLINK-5817,PAYLOAD,2023-06-18 09:15:18,15.69948618,0.0003405,69.9974,215.2228,269.7059,90.3746,0.00010642,0.00012616,0.0,0 STARLINK-5817,1 55779U 23028AQ  23169.38563203  .00012616  00000-0  10642-3 0  9991,2 55779  69.9974 215.2228 0003405 269.7059  90.3746 15.69948618 17410,6737.181,91.723,361.34,356.752,0.0
55779.0,STARLINK-5817,PAYLOAD,2023-06-18 22:00:00,15.69874116,0.0003495,69.9996,213.7295,272.1675,208.3235,0.00071787,0.00086825,0.0,0 STARLINK-5817,1 55779U 23028AQ  23169.91667824  .00086825  00000-0  71787-3 0  9994,2 55779  69.9996 213.7295 0003495 272.1675 208.3235 15.69874116 17495,6737.394,91.727,361.614,356.904,0.0
55779.0,STARLINK-5817,PAYLOAD,2023-06-19 09:43:20,15.69937282,0.0003241,69.9992,212.3552,276.8104,83.2723,3.9681e-05,4.564e-05,0.0,0 STARLINK-5817,1 55779U 23028AQ  23170.40510131  .00004564  00000-0  39681-4 0  9996,2 55779  69.9992 212.3552 0003241 276.8104  83.2723 15.69937282 17574,6737.213,91.723,361.262,356.895,0.0
55779.0,STARLINK-5817,PAYLOAD,2023-06-19 20:25:36,15.69936022,0.000409,69.998,211.1032,274.6515,85.4214,3.9684e-05,4.564e-05,0.0,0 STARLINK-5817,1 55779U 23028AQ  23170.85111564  .00004564  00000-0  39684-4 0  9995,2 55779  69.9980 211.1032 0004090 274.6515  85.4214 15.69936022 17644,6737.217,91.723,361.838,356.327,0.0
55779.0,STARLINK-5817,PAYLOAD,2023-06-19 23:29:06,15.69930381,0.0003094,70.0011,210.7446,277.1143,82.9701,7.8017e-06,7.26e-06,0.0,0 STARLINK-5817,1 55779U 23028AQ  23170.97855264  .00000726  00000-0  78017-5 0  9990,2 55779  70.0011 210.7446 0003094 277.1143  82.9701 15.69930381 17661,6737.233,91.724,361.183,357.014,0.0
55779.0,STARLINK-5817,PAYLOAD,2023-06-20 08:39:37,15.69933903,0.0003593,69.9985,209.6684,269.0695,91.0089,3.2697e-05,3.722e-05,0.0,0 STARLINK-5817,1 55779U 23028AQ  23171.36084962  .00003722  00000-0  32697-4 0  9995,2 55779  69.9985 209.6684 0003593 269.0695  91.0089 15.69933903 17725,6737.223,91.724,361.509,356.667,0.0
55779.0,STARLINK-5817,PAYLOAD,2023-06-20 13:14:52,15.6993212,0.000371,69.9984,209.1308,268.3883,91.6888,3.3992e-05,3.878e-05,0.0,0 STARLINK-5817,1 55779U 23028AQ  23171.55199985  .00003878  00000-0  33992-4 0  9999,2 55779  69.9984 209.1308 0003710 268.3883  91.6888 15.69932120 17750,6737.228,91.724,361.593,356.594,0.0
55779.0,STARLINK-5817,PAYLOAD,2023-06-21 03:00:39,15.69920361,0.0003666,69.9983,207.518,269.8886,90.189,2.5452e-06,9.3e-07,0.0,0 STARLINK-5817,1 55779U 23028AQ  23172.12545544  .00000093  00000-0  25452-5 0  9998,2 55779  69.9983 207.5180 0003666 269.8886  90.1890 15.69920361 17849,6737.262,91.724,361.597,356.657,0.0
55779.0,STARLINK-5817,PAYLOAD,2023-06-21 12:11:09,15.69927517,0.0003332,69.9987,206.4432,270.7597,89.3217,2.2169e-05,2.454e-05,0.0,0 STARLINK-5817,1 55779U 23028AQ  23172.50775389  .00002454  00000-0  22169-4 0  9996,2 55779  69.9987 206.4432 0003332 270.7597  89.3217 15.69927517 17901,6737.241,91.724,361.351,356.862,0.0
55779.0,STARLINK-5817,PAYLOAD,2023-06-21 19:49:55,15.6992493,0.0003347,69.9989,205.5495,273.5696,86.5116,1.8343e-05,1.993e-05,0.0,0 STARLINK-5817,1 55779U 23028AQ  23172.82633914  .00001993  00000-0  18343-4 0  9994,2 55779  69.9989 205.5495 0003347 273.5696  86.5116 15.69924930 17957,6737.249,91.724,361.369,356.859,0.0
55779.0,STARLINK-5817,PAYLOAD,2023-06-22 09:35:41,15.69924574,0.0003066,70.0014,203.9386,263.0841,97.0006,7.3913e-06,6.76e-06,0.0,0 STARLINK-5817,1 55779U 23028AQ  23173.39978987  .00000676  00000-0  73913-5 0  9991,2 55779  70.0014 203.9386 0003066 263.0841  97.0006 15.69924574 18044,6737.25,91.724,361.18,357.049,0.0
55779.0,STARLINK-5817,PAYLOAD,2023-06-23 11:35:29,15.69910274,0.0003111,69.9995,200.8895,276.9797,83.1045,-1.2257e-05,-1.685e-05,0.0,0 STARLINK-5817,1 55779U 23028AQ  23174.48298260 -.00001685  00000-0 -12257-4 0  9997,2 55779  69.9995 200.8895 0003111 276.9797  83.1045 15.69910274 18214,6737.291,91.725,361.252,357.06,0.0
55779.0,STARLINK-5817,PAYLOAD,2023-06-24 01:21:15,15.6992077,0.0003833,69.9985,199.2795,272.3526,87.7231,1.6718e-05,1.797e-05,0.0,0 STARLINK-5817,1 55779U 23028AQ  23175.05642789  .00001797  00000-0  16718-4 0  9998,2 55779  69.9985 199.2795 0003833 272.3526  87.7231 15.69920770 18303,6737.261,91.724,361.708,356.543,0.0
55779.0,STARLINK-5817,PAYLOAD,2023-06-24 04:24:45,15.69929298,0.0003517,69.9998,198.9221,271.5112,88.5681,2.9558e-05,3.344e-05,0.0,0 STARLINK-5817,1 55779U 23028AQ  23175.18385868  .00003344  00000-0  29558-4 0  9990,2 55779  69.9998 198.9221 0003517 271.5112  88.5681 15.69929298 18322,6737.236,91.724,361.471,356.732,0.0
55779.0,STARLINK-5817,PAYLOAD,2023-06-25 01:49:17,15.69926401,0.0002615,70.0016,196.4136,272.3769,87.7127,2.6657e-05,2.994e-05,0.0,0 STARLINK-5817,1 55779U 23028AQ  23176.07589470  .00002994  00000-0  26657-4 0  9991,2 55779  70.0016 196.4136 0002615 272.3769  87.7127 15.69926401 18463,6737.245,91.724,360.871,357.348,0.0
55779.0,STARLINK-5817,PAYLOAD,2023-06-26 02:17:19,15.69925482,0.0003245,70.0006,193.5482,265.9405,94.142,1.3114e-05,1.365e-05,0.0,0 STARLINK-5817,1 55779U 23028AQ  23177.09536134  .00001365  00000-0  13114-4 0  9998,2 55779  70.0006 193.5482 0003245 265.9405  94.1420 15.69925482 18623,6737.247,91.724,361.298,356.926,0.0
55779.0,STARLINK-5817,PAYLOAD,2023-06-27 08:52:21,15.699331,0.000344,70.0001,189.965,268.9913,91.0888,3.4855e-05,3.982e-05,0.0,0 STARLINK-5817,1 55779U 23028AQ  23178.36969292  .00003982  00000-0  34855-4 0  9996,2 55779  70.0001 189.9650 0003440 268.9913  91.0888 15.69933100 18820,6737.225,91.724,361.408,356.773,0.0
55779.0,STARLINK-5817,PAYLOAD,2023-06-27 18:02:52,15.69921111,0.0003101,69.9998,188.8913,269.3836,90.7004,5.8798e-06,4.94e-06,0.0,0 STARLINK-5817,1 55779U 23028AQ  23178.75199886  .00000494  00000-0  58798-5 0  9991,2 55779  69.9998 188.8913 0003101 269.3836  90.7004 15.69921111 18886,6737.26,91.724,361.214,357.035,0.0
55779.0,STARLINK-5817,PAYLOAD,2023-06-29 02:09:40,15.69924903,0.000331,69.9998,185.1282,269.3826,90.6991,1.1116e-05,1.124e-05,0.0,0 STARLINK-5817,1 55779U 23028AQ  23180.09004880  .00001124  00000-0  11116-4 0  9993,2 55779  69.9998 185.1282 0003310 269.3826  90.6991 15.69924903 19096,6737.249,91.724,361.344,356.884,0.0
55779.0,STARLINK-5817,PAYLOAD,2023-06-30 11:48:13,15.69920524,0.0003601,69.999,181.187,265.2771,94.8014,-3.1796e-06,-5.95e-06,0.0,0 STARLINK-5817,1 55779U 23028AQ  23181.49181756 -.00000595  00000-0 -31796-5 0  9996,2 55779  69.9990 181.1870 0003601 265.2771  94.8014 15.69920524 19316,6737.261,91.724,361.552,356.7,0.0
